{"type": "FeatureCollection", "features": [ {"type": "Feature", "properties": {"norad_id": 33905, "name": "COSMOS 2251 DEB", "group": "cosmos-2251-debris", "lat": 47.11659195715163, "lon": 101.62436396380535, "alt_km": 746.3237857213144, "timestamp": "2025-12-21T20:41:08.348858+00:00", "meta": {"OBJECT_NAME": "COSMOS 2251 DEB", "OBJECT_ID": "1993-036DJ", "EPOCH": "2025-12-21T03:24:17.254368", "MEAN_MOTION": 14.35411783, "ECCENTRICITY": 0.00583394, "INCLINATION": 73.8865, "RA_OF_ASC_NODE": 301.092, "ARG_OF_PERICENTER": 188.7998, "MEAN_ANOMALY": 182.6892, "EPHEMERIS_TYPE": 0, "CLASSIFICATION_TYPE": "U", "NORAD_CAT_ID": 33905, "ELEMENT_SET_NO": 999, "REV_AT_EPOCH": 87808, "BSTAR": 0.00039441273, "MEAN_MOTION_DOT": 1.128e-05, "MEAN_MOTION_DDOT": 0}, "tle": {"line1": "1 33905U 93036DJ  25355.14186637  .00001128  00000+0  39441-3 0  9992", "line2": "2 33905  73.8865 301.0920 0058339 188.7998 182.6892 14.35411783878086"}}, "geometry": {"type": "Point", "coordinates": [101.62436396380535, 47.11659195715163]}}, {"type": "Feature", "properties": {"norad_id": 33906, "name": "COSMOS 2251 DEB", "group": "cosmos-2251-debris", "lat": 9.269899521606156, "lon": -53.18282709904958, "alt_km": 682.71521238483, "timestamp": "2025-12-21T20:41:08.348868+00:00", "meta": {"OBJECT_NAME": "COSMOS 2251 DEB", "OBJECT_ID": "1993-036DK", "EPOCH": "2025-12-21T08:02:46.857120", "MEAN_MOTION": 14.57221218, "ECCENTRICITY": 0.00369363, "INCLINATION": 74.0307, "RA_OF_ASC_NODE": 305.1387, "ARG_OF_PERICENTER": 333.3516, "MEAN_ANOMALY": 154.5372, "EPHEMERIS_TYPE": 0, "CLASSIFICATION_TYPE": "U", "NORAD_CAT_ID": 33906, "ELEMENT_SET_NO": 999, "REV_AT_EPOCH": 88133, "BSTAR": 0.0013765378, "MEAN_MOTION_DOT": 6.253e-05, "MEAN_MOTION_DDOT": 0}, "tle": {"line1": "1 33906U 93036DK  25355.33526455  .00006253  00000+0  13765-2 0  9994", "line2": "2 33906  74.0307 305.1387 0036936 333.3516 154.5372 14.57221218881335"}}, "geometry": {"type": "Point", "coordinates": [-53.18282709904958, 9.269899521606156]}}, {"type": "Feature", "properties": {"norad_id": 33907, "name": "COSMOS 2251 DEB", "group": "cosmos-2251-debris", "lat": -9.503694631193579, "lon": -160.17575841844837, "alt_km": 832.8221674356873, "timestamp": "2025-12-21T20:41:08.348877+00:00", "meta": {"OBJECT_NAME": "COSMOS 2251 DEB", "OBJECT_ID": "1993-036DL", "EPOCH": "2025-12-20T08:39:03.581568", "MEAN_MOTION": 14.30568878, "ECCENTRICITY": 0.01118938, "INCLINATION": 74.0693, "RA_OF_ASC_NODE": 19.8097, "ARG_OF_PERICENTER": 73.0053, "MEAN_ANOMALY": 306.2172, "EPHEMERIS_TYPE": 0, "CLASSIFICATION_TYPE": "U", "NORAD_CAT_ID": 33907, "ELEMENT_SET_NO": 999, "REV_AT_EPOCH": 86689, "BSTAR": 0.0011890274, "MEAN_MOTION_DOT": 3.297e-05, "MEAN_MOTION_DDOT": 0}, "tle": {"line1": "1 33907U 93036DL  25354.36045812  .00003297  00000+0  11890-2 0  9992", "line2": "2 33907  74.0693  19.8097 0111893  73.0053 306.2172 14.30568878866896"}}, "geometry": {"type": "Point", "coordinates": [-160.17575841844837, -9.503694631193579]}}, {"type": "Feature", "properties": {"norad_id": 33908, "name": "COSMOS 2251 DEB", "group": "cosmos-2251-debris", "lat": 2.6582396423975987, "lon": 8.806888077384778, "alt_km": 736.1601724639922, "timestamp": "2025-12-21T20:41:08.348886+00:00", "meta": {"OBJECT_NAME": "COSMOS 2251 DEB", "OBJECT_ID": "1993-036DM", "EPOCH": "2025-12-21T13:00:35.945280", "MEAN_MOTION": 14.0740282, "ECCENTRICITY": 0.02224546, "INCLINATION": 73.8362, "RA_OF_ASC_NODE": 190.1458, "ARG_OF_PERICENTER": 212.033, "MEAN_ANOMALY": 146.7127, "EPHEMERIS_TYPE": 0, "CLASSIFICATION_TYPE": "U", "NORAD_CAT_ID": 33908, "ELEMENT_SET_NO": 999, "REV_AT_EPOCH": 85597, "BSTAR": 0.0016138178, "MEAN_MOTION_DOT": 3.376e-05, "MEAN_MOTION_DDOT": 0}, "tle": {"line1": "1 33908U 93036DM  25355.54208270  .00003376  00000+0  16138-2 0  9991", "line2": "2 33908  73.8362 190.1458 0222454 212.0330 146.7127 14.07402820855972"}}, "geometry": {"type": "Point", "coordinates": [8.806888077384778, 2.6582396423975987]}}, {"type": "Feature", "properties": {"norad_id": 33911, "name": "COSMOS 2251 DEB", "group": "cosmos-2251-debris", "lat": 4.286295931952255, "lon": 145.31304786961238, "alt_km": 644.3021196007176, "timestamp": "2025-12-21T20:41:08.348895+00:00", "meta": {"OBJECT_NAME": "COSMOS 2251 DEB", "OBJECT_ID": "1993-036DQ", "EPOCH": "2025-12-21T04:38:28.888224", "MEAN_MOTION": 14.75044552, "ECCENTRICITY": 0.0014043, "INCLINATION": 74.0901, "RA_OF_ASC_NODE": 145.3897, "ARG_OF_PERICENTER": 79.9548, "MEAN_ANOMALY": 336.3353, "EPHEMERIS_TYPE": 0, "CLASSIFICATION_TYPE": "U", "NORAD_CAT_ID": 33911, "ELEMENT_SET_NO": 999, "REV_AT_EPOCH": 88769, "BSTAR": 0.0015038, "MEAN_MOTION_DOT": 0.00010127, "MEAN_MOTION_DDOT": 0}, "tle": {"line1": "1 33911U 93036DQ  25355.19338991  .00010127  00000+0  15038-2 0  9990", "line2": "2 33911  74.0901 145.3897 0014043  79.9548 336.3353 14.75044552887692"}}, "geometry": {"type": "Point", "coordinates": [145.31304786961238, 4.286295931952255]}}, {"type": "Feature", "properties": {"norad_id": 33912, "name": "COSMOS 2251 DEB", "group": "cosmos-2251-debris", "lat": -34.01559131600758, "lon": 3.682580784178345, "alt_km": 718.6392723672197, "timestamp": "2025-12-21T20:41:08.348905+00:00", "meta": {"OBJECT_NAME": "COSMOS 2251 DEB", "OBJECT_ID": "1993-036DR", "EPOCH": "2025-12-21T13:20:22.887744", "MEAN_MOTION": 14.51940093, "ECCENTRICITY": 0.00113378, "INCLINATION": 74.0325, "RA_OF_ASC_NODE": 173.1172, "ARG_OF_PERICENTER": 252.0378, "MEAN_ANOMALY": 164.29, "EPHEMERIS_TYPE": 0, "CLASSIFICATION_TYPE": "U", "NORAD_CAT_ID": 33912, "ELEMENT_SET_NO": 999, "REV_AT_EPOCH": 88561, "BSTAR": 0.00058643273, "MEAN_MOTION_DOT": 2.341e-05, "MEAN_MOTION_DDOT": 0}, "tle": {"line1": "1 33912U 93036DR  25355.55582046  .00002341  00000+0  58643-3 0  9992", "line2": "2 33912  74.0325 173.1172 0011337 252.0378 164.2900 14.51940093885611"}}, "geometry": {"type": "Point", "coordinates": [3.682580784178345, -34.01559131600758]}}, {"type": "Feature", "properties": {"norad_id": 33913, "name": "COSMOS 2251 DEB", "group": "cosmos-2251-debris", "lat": -8.419611183878404, "lon": -11.017485326909682, "alt_km": 727.3015102817508, "timestamp": "2025-12-21T20:41:08.348914+00:00", "meta": {"OBJECT_NAME": "COSMOS 2251 DEB", "OBJECT_ID": "1993-036DS", "EPOCH": "2025-12-21T13:30:46.562688", "MEAN_MOTION": 14.48518822, "ECCENTRICITY": 0.00481642, "INCLINATION": 74.0319, "RA_OF_ASC_NODE": 167.1133, "ARG_OF_PERICENTER": 268.0246, "MEAN_ANOMALY": 163.3212, "EPHEMERIS_TYPE": 0, "CLASSIFICATION_TYPE": "U", "NORAD_CAT_ID": 33913, "ELEMENT_SET_NO": 999, "REV_AT_EPOCH": 88585, "BSTAR": 0.00043487168, "MEAN_MOTION_DOT": 1.628e-05, "MEAN_MOTION_DDOT": 0}, "tle": {"line1": "1 33913U 93036DS  25355.56303892  .00001628  00000+0  43487-3 0  9991", "line2": "2 33913  74.0319 167.1133 0048164 268.0246 163.3212 14.48518822885853"}}, "geometry": {"type": "Point", "coordinates": [-11.017485326909682, -8.419611183878404]}}, {"type": "Feature", "properties": {"norad_id": 33914, "name": "COSMOS 2251 DEB", "group": "cosmos-2251-debris", "lat": 11.327732134399946, "lon": 176.78629653724713, "alt_km": 901.893251497012, "timestamp": "2025-12-21T20:41:08.348924+00:00", "meta": {"OBJECT_NAME": "COSMOS 2251 DEB", "OBJECT_ID": "1993-036DT", "EPOCH": "2025-12-21T09:55:58.501920", "MEAN_MOTION": 13.71989518, "ECCENTRICITY": 0.03008234, "INCLINATION": 74.091, "RA_OF_ASC_NODE": 0.7996, "ARG_OF_PERICENTER": 101.7354, "MEAN_ANOMALY": 11.1667, "EPHEMERIS_TYPE": 0, "CLASSIFICATION_TYPE": "U", "NORAD_CAT_ID": 33914, "ELEMENT_SET_NO": 999, "REV_AT_EPOCH": 84200, "BSTAR": 0.00019590316, "MEAN_MOTION_DOT": 2.26e-06, "MEAN_MOTION_DDOT": 0}, "tle": {"line1": "1 33914U 93036DT  25355.41387155  .00000226  00000+0  19590-3 0  9991", "line2": "2 33914  74.0910   0.7996 0300823 101.7354  11.1667 13.71989518842009"}}, "geometry": {"type": "Point", "coordinates": [176.78629653724713, 11.327732134399946]}}, {"type": "Feature", "properties": {"norad_id": 33915, "name": "COSMOS 2251 DEB", "group": "cosmos-2251-debris", "lat": -17.60723593488462, "lon": -157.4007813012019, "alt_km": 779.4913674830195, "timestamp": "2025-12-21T20:41:08.348933+00:00", "meta": {"OBJECT_NAME": "COSMOS 2251 DEB", "OBJECT_ID": "1993-036DU", "EPOCH": "2025-12-21T01:30:48.067776", "MEAN_MOTION": 14.35099706, "ECCENTRICITY": 0.01040935, "INCLINATION": 74.0432, "RA_OF_ASC_NODE": 18.853, "ARG_OF_PERICENTER": 109.1591, "MEAN_ANOMALY": 282.4072, "EPHEMERIS_TYPE": 0, "CLASSIFICATION_TYPE": "U", "NORAD_CAT_ID": 33915, "ELEMENT_SET_NO": 999, "REV_AT_EPOCH": 87877, "BSTAR": 0.00023845582, "MEAN_MOTION_DOT": 6.97e-06, "MEAN_MOTION_DDOT": 0}, "tle": {"line1": "1 33915U 93036DU  25355.06305634  .00000697  00000+0  23846-3 0  9996", "line2": "2 33915  74.0432  18.8530 0104093 109.1591 282.4072 14.35099706878777"}}, "geometry": {"type": "Point", "coordinates": [-157.4007813012019, -17.60723593488462]}}, {"type": "Feature", "properties": {"norad_id": 33916, "name": "COSMOS 2251 DEB", "group": "cosmos-2251-debris", "lat": -35.133574258117235, "lon": 13.99230346515839, "alt_km": 1151.5432863388296, "timestamp": "2025-12-21T20:41:08.348942+00:00", "meta": {"OBJECT_NAME": "COSMOS 2251 DEB", "OBJECT_ID": "1993-036DV", "EPOCH": "2025-12-21T12:41:57.207840", "MEAN_MOTION": 13.68622825, "ECCENTRICITY": 0.03249487, "INCLINATION": 74.0521, "RA_OF_ASC_NODE": 26.1465, "ARG_OF_PERICENTER": 196.4141, "MEAN_ANOMALY": 284.9764, "EPHEMERIS_TYPE": 0, "CLASSIFICATION_TYPE": "U", "NORAD_CAT_ID": 33916, "ELEMENT_SET_NO": 999, "REV_AT_EPOCH": 84011, "BSTAR": 0.00028317539, "MEAN_MOTION_DOT": 3.29e-06, "MEAN_MOTION_DDOT": 0}, "tle": {"line1": "1 33916U 93036DV  25355.52913435  .00000329  00000+0  28318-3 0  9993", "line2": "2 33916  74.0521  26.1465 0324948 196.4141 284.9764 13.68622825840110"}}, "geometry": {"type": "Point", "coordinates": [13.99230346515839, -35.133574258117235]}}]}